STARLINK-2661           
1 48469U 21040AT  26201.55764459  .00001460  00000+0  58784-4 0  9990
2 48469  53.1599 292.9448 0001539  67.1313 292.9851 15.31708518286867
STARLINK-2675           
1 48470U 21040AU  26202.64824816  .00001918  00000+0  73524-4 0  9994
2 48470  53.1605 287.7333 0001069  81.7689 278.3434 15.31706942287021
STARLINK-2684           
1 48471U 21040AV  26202.57833492  .00018071  00000+0  59230-3 0  9992
2 48471  53.1597 288.0673 0001490  64.8700 295.2456 15.31719810287016
STARLINK-2722           
1 48472U 21040AW  26202.61996224  .00018479  00000+0  10301-2 0  9998
2 48472  53.0585 306.0325 0000590  80.2933 279.8125 15.13646453286739
STARLINK-2658           
1 48473U 21040AX  26201.41780926  .00001139  00000+0  48448-4 0  9996
2 48473  53.1593 293.4205 0001053 101.2785 258.8335 15.31710455286835
STARLINK-2697           
1 48474U 21040AY  26202.62973448 -.00003593  00000+0 -10418-3 0  9997
2 48474  53.1601 288.5318 0000930  69.8743 290.2358 15.31663898287005
STARLINK-2728           
1 48478U 21040BC  26202.61564065  .00001010  00000+0  44293-4 0  9990
2 48478  53.1607 287.9812 0001235  80.8762 279.2379 15.31700389287018
STARLINK-2755           
1 48479U 21040BD  26202.63431145  .00021899  00000+0  71499-3 0  9999
2 48479  53.1577 288.1450 0001701  92.5452 267.5745 15.31716795287015
STARLINK-2706           
1 48481U 21040BF  26202.65856776  .00002812  00000+0  10230-3 0  9995
2 48481  53.1590 290.1358 0001121  73.0841 287.0283 15.31708771286990
STARLINK-2525           
1 48482U 21040BG  26202.56541059 -.00001811  00000+0 -46607-4 0  9999
2 48482  53.1600 290.9856 0001139  86.0462 274.0670 15.31691576286974
STARLINK-2531           
1 48483U 21040BH  26202.64466361  .00001682  00000+0  65928-4 0  9992
2 48483  53.1612 290.7970 0000975  66.6206 293.4898 15.31705379286985
STARLINK-2500           
1 48485U 21040BK  26202.22515574  .00000876  00000+0  39991-4 0  9994
2 48485  53.1599 292.3925 0000882  70.0436 290.0661 15.31705027286925
STARLINK-2494           
1 48487U 21040BM  26201.60997079  .00000301  00000+0  21466-4 0  9992
2 48487  53.1603 295.5599 0001163  81.0861 279.0272 15.31709338286836
STARLINK-2063           
1 48553U 21041A   26202.31998219  .00000660  00000+0  33048-4 0  9990
2 48553  53.1595 225.0237 0001136  86.0590 274.0541 15.31695544285758
STARLINK-2139           
1 48554U 21041B   26202.44580906  .00000435  00000+0  25779-4 0  9997
2 48554  53.1588 224.3374 0001230  85.0120 275.1022 15.31698816285771
STARLINK-2145           
1 48555U 21041C   26202.52138374  .00001287  00000+0  53214-4 0  9996
2 48555  53.1592 246.2298 0001161  81.7362 278.3772 15.31699859285459
STARLINK-2151           
1 48556U 21041D   26202.31943063  .00000949  00000+0  42336-4 0  9990
2 48556  53.1593 240.6655 0000958  84.7642 275.3469 15.31701312285529
STARLINK-2155           
1 48557U 21041E   26202.48311254  .00002315  00000+0  86325-4 0  9995
2 48557  53.1581 224.3155 0000879  77.9441 282.1659 15.31708795285770
STARLINK-2166           
1 48558U 21041F   26203.19619377  .00003880  00000+0  13660-3 0  9991
2 48558  53.1583 220.9838 0001001  81.8562 278.2553 15.31732465285027
STARLINK-2187           
1 48562U 21041K   26203.26794638  .00086046  00000+0  63266-3 0  9990
2 48562  53.1520 203.7602 0003155  52.9243 307.2064 15.72384532286134
STARLINK-2188           
1 48563U 21041L   26203.31269453  .00000255  00000+0  19978-4 0  9999
2 48563  53.1597 220.3226 0001262 112.2300 247.8836 15.31714958285901
STARLINK-2190           
1 48564U 21041M   26202.45512879  .00001431  00000+0  57881-4 0  9999
2 48564  53.1601 224.2940 0001134  92.9360 267.1772 15.31701230285770
STARLINK-2214           
1 48566U 21041P   26202.32096892  .00001501  00000+0  60120-4 0  9997
2 48566  53.1594 247.1255 0001254  83.9842 276.1302 15.31697290285425
STARLINK-2217           
1 48568U 21041R   26203.19156885  .00002418  00000+0  89615-4 0  9992
2 48568  53.1582 221.3059 0001018  76.9594 283.1522 15.31720200285873
STARLINK-2219           
1 48569U 21041S   26202.45978947  .00000828  00000+0  38425-4 0  9998
2 48569  53.1599 224.2838 0001212  82.1747 277.9392 15.31702822285779
STARLINK-2221           
1 48571U 21041U   26202.47750723  .00000542  00000+0  29241-4 0  9992
2 48571  53.1592 237.0403 0001191  69.1921 290.9208 15.31699986285597
STARLINK-2222           
1 48572U 21041V   26202.42816839  .00001114  00000+0  47652-4 0  9991
2 48572  53.1585 246.6358 0000970  77.6469 282.4641 15.31703027285443
STARLINK-2224           
1 48573U 21041W   26202.36200444 -.00001346  00000+0 -31598-4 0  9995
2 48573  53.1596 225.3926 0001447 100.0229 260.0936 15.31706435285744
STARLINK-2225           
1 48574U 21041X   26203.14343147  .00002318  00000+0  86384-4 0  9992
2 48574  53.1604 195.3604 0001362  88.7345 271.3813 15.31718901286236
STARLINK-2227           
1 48575U 21041Y   26203.18700226  .00000084  00000+0  14484-4 0  9992
2 48575  53.1598 182.4039 0001355  90.9660 269.1497 15.31700779286434
