OBJECT_NAME,OBJECT_ID,EPOCH,MEAN_MOTION,ECCENTRICITY,INCLINATION,RA_OF_ASC_NODE,ARG_OF_PERICENTER,MEAN_ANOMALY,EPHEMERIS_TYPE,CLASSIFICATION_TYPE,NORAD_CAT_ID,ELEMENT_SET_NO,REV_AT_EPOCH,BSTAR,MEAN_MOTION_DOT,MEAN_MOTION_DDOT
STARLINK-2661,2021-040AT,2026-07-20T13:23:00.492576,15.31708518,.0001539,53.1599,292.9448,67.1313,292.9851,0,U,48469,999,28686,.58784405E-4,.146E-4,0
STARLINK-2675,2021-040AU,2026-07-21T15:33:28.641024,15.31706942,.00010691,53.1605,287.7333,81.7689,278.3434,0,U,48470,999,28702,.73523763E-4,.1918E-4,0
STARLINK-2684,2021-040AV,2026-07-21T13:52:48.137088,15.31719810,.00014909,53.1597,288.0673,64.8700,295.2456,0,U,48471,999,28701,.59230122E-3,.18071E-3,0
STARLINK-2722,2021-040AW,2026-07-21T14:52:44.737536,15.13646453,.00005908,53.0585,306.0325,80.2933,279.8125,0,U,48472,999,28673,.10300701E-2,.18479E-3,0
STARLINK-2658,2021-040AX,2026-07-20T10:01:38.720064,15.31710455,.00010536,53.1593,293.4205,101.2785,258.8335,0,U,48473,999,28683,.48447953E-4,.1139E-4,0
STARLINK-2697,2021-040AY,2026-07-21T15:06:49.059072,15.31663898,.00009309,53.1601,288.5318,69.8743,290.2358,0,U,48474,999,28700,-.1041843E-3,-.3593E-4,0
STARLINK-2728,2021-040BC,2026-07-21T14:46:31.352160,15.31700389,.00012352,53.1607,287.9812,80.8762,279.2379,0,U,48478,999,28701,.44293279E-4,.101E-4,0
STARLINK-2755,2021-040BD,2026-07-21T15:13:24.509280,15.31716795,.00017018,53.1577,288.1450,92.5452,267.5745,0,U,48479,999,28701,.71498812E-3,.21899E-3,0
STARLINK-2706,2021-040BF,2026-07-21T15:48:20.254464,15.31708771,.00011216,53.1590,290.1358,73.0841,287.0283,0,U,48481,999,28699,.10230102E-3,.2812E-4,0
STARLINK-2525,2021-040BG,2026-07-21T13:34:11.474976,15.31691576,.00011397,53.1600,290.9856,86.0462,274.0670,0,U,48482,999,28697,-.46607276E-4,-.1811E-4,0
STARLINK-2531,2021-040BH,2026-07-21T15:28:18.935904,15.31705379,.00009758,53.1612,290.7970,66.6206,293.4898,0,U,48483,999,28698,.65927853E-4,.1682E-4,0
STARLINK-2500,2021-040BK,2026-07-21T05:24:13.455936,15.31705027,.00008827,53.1599,292.3925,70.0436,290.0661,0,U,48485,999,28692,.39990824E-4,.876E-5,0
STARLINK-2494,2021-040BM,2026-07-20T14:38:21.476256,15.31709338,.00011633,53.1603,295.5599,81.0861,279.0272,0,U,48487,999,28683,.21466161E-4,.301E-5,0
STARLINK-2063,2021-041A,2026-07-21T07:40:46.461216,15.31695544,.00011364,53.1595,225.0237,86.0590,274.0541,0,U,48553,999,28575,.33048484E-4,.66E-5,0
STARLINK-2139,2021-041B,2026-07-21T10:41:57.902784,15.31698816,.00012308,53.1588,224.3374,85.0120,275.1022,0,U,48554,999,28577,.25779466E-4,.435E-5,0
STARLINK-2145,2021-041C,2026-07-21T12:30:47.555136,15.31699859,.00011619,53.1592,246.2298,81.7362,278.3772,0,U,48555,999,28545,.5321369E-4,.1287E-4,0
STARLINK-2151,2021-041D,2026-07-21T07:39:58.806432,15.31701312,.00009589,53.1593,240.6655,84.7642,275.3469,0,U,48556,999,28552,.42335835E-4,.949E-5,0
STARLINK-2155,2021-041E,2026-07-21T11:35:40.923456,15.31708795,.00008798,53.1581,224.3155,77.9441,282.1659,0,U,48557,999,28577,.8632509E-4,.2315E-4,0
STARLINK-2166,2021-041F,2026-07-22T04:42:31.141728,15.31732465,.00010019,53.1583,220.9838,81.8562,278.2553,0,U,48558,999,28502,.13659781E-3,.388E-4,0
STARLINK-2187,2021-041K,2026-07-22T06:25:50.567232,15.72384532,.00031558,53.1520,203.7602,52.9243,307.2064,0,U,48562,999,28613,.63266166E-3,.86046E-3,0
STARLINK-2188,2021-041L,2026-07-22T07:30:16.807392,15.31714958,.00012622,53.1597,220.3226,112.2300,247.8836,0,U,48563,999,28590,.19977934E-4,.255E-5,0
STARLINK-2190,2021-041M,2026-07-21T10:55:23.127456,15.31701230,.00011349,53.1601,224.2940,92.9360,267.1772,0,U,48564,999,28577,.5788098E-4,.1431E-4,0
STARLINK-2214,2021-041P,2026-07-21T07:42:11.714688,15.31697290,.00012544,53.1594,247.1255,83.9842,276.1302,0,U,48566,999,28542,.60119663E-4,.1501E-4,0
STARLINK-2217,2021-041R,2026-07-22T04:35:51.548640,15.31720200,.00010187,53.1582,221.3059,76.9594,283.1522,0,U,48568,999,28587,.896152E-4,.2418E-4,0
STARLINK-2219,2021-041S,2026-07-21T11:02:05.810208,15.31702822,.00012121,53.1599,224.2838,82.1747,277.9392,0,U,48569,999,28577,.38425332E-4,.828E-5,0
STARLINK-2221,2021-041U,2026-07-21T11:27:36.624672,15.31699986,.0001191,53.1592,237.0403,69.1921,290.9208,0,U,48571,999,28559,.29241187E-4,.542E-5,0
STARLINK-2222,2021-041V,2026-07-21T10:16:33.748896,15.31703027,.000097,53.1585,246.6358,77.6469,282.4641,0,U,48572,999,28544,.47651887E-4,.1114E-4,0
STARLINK-2224,2021-041W,2026-07-21T08:41:17.183616,15.31706435,.00014477,53.1596,225.3926,100.0229,260.0936,0,U,48573,999,28574,-.31597975E-4,-.1346E-4,0
STARLINK-2225,2021-041X,2026-07-22T03:26:32.479008,15.31718901,.00013622,53.1604,195.3604,88.7345,271.3813,0,U,48574,999,28623,.86383679E-4,.2318E-4,0
STARLINK-2227,2021-041Y,2026-07-22T04:29:16.995264,15.31700779,.00013556,53.1598,182.4039,90.9660,269.1497,0,U,48575,999,28643,.1448429E-4,.84E-6,0
